{"type": "FeatureCollection", "features": [ {"type": "Feature", "properties": {"norad_id": 64902, "name": "CO3D 2", "group": "resource", "lat": -14.260777652434102, "lon": -108.08641691290315, "alt_km": 510.319936990787, "timestamp": "2025-12-23T16:57:12.003092+00:00", "meta": {"OBJECT_NAME": "CO3D 2", "OBJECT_ID": "2025-156D", "EPOCH": "2025-12-23T06:37:23.002752", "MEAN_MOTION": 15.20203335, "ECCENTRICITY": 8.798e-05, "INCLINATION": 97.4341, "RA_OF_ASC_NODE": 73.3912, "ARG_OF_PERICENTER": 66.7598, "MEAN_ANOMALY": 293.3729, "EPHEMERIS_TYPE": 0, "CLASSIFICATION_TYPE": "U", "NORAD_CAT_ID": 64902, "ELEMENT_SET_NO": 999, "REV_AT_EPOCH": 2280, "BSTAR": 0.00047935129, "MEAN_MOTION_DOT": 0.00010324, "MEAN_MOTION_DDOT": 0}, "tle": {"line1": "1 64902U 25156D   25357.27596068  .00010324  00000+0  47935-3 0  9995", "line2": "2 64902  97.4341  73.3912 0000879  66.7598 293.3729 15.20203335 22802"}}, "geometry": {"type": "Point", "coordinates": [-108.08641691290315, -14.260777652434102]}}, {"type": "Feature", "properties": {"norad_id": 64903, "name": "CO3D 1", "group": "resource", "lat": -13.44724047082908, "lon": -107.97396038153616, "alt_km": 510.1450685511636, "timestamp": "2025-12-23T16:57:12.003102+00:00", "meta": {"OBJECT_NAME": "CO3D 1", "OBJECT_ID": "2025-156E", "EPOCH": "2025-12-23T06:37:36.050016", "MEAN_MOTION": 15.20207033, "ECCENTRICITY": 8.984e-05, "INCLINATION": 97.4338, "RA_OF_ASC_NODE": 73.391, "ARG_OF_PERICENTER": 77.2276, "MEAN_ANOMALY": 282.9059, "EPHEMERIS_TYPE": 0, "CLASSIFICATION_TYPE": "U", "NORAD_CAT_ID": 64903, "ELEMENT_SET_NO": 999, "REV_AT_EPOCH": 2280, "BSTAR": 0.00027022852, "MEAN_MOTION_DOT": 5.788e-05, "MEAN_MOTION_DDOT": 0}, "tle": {"line1": "1 64903U 25156E   25357.27611169  .00005788  00000+0  27023-3 0  9990", "line2": "2 64903  97.4338  73.3910 0000898  77.2276 282.9059 15.20207033 22807"}}, "geometry": {"type": "Point", "coordinates": [-107.97396038153616, -13.44724047082908]}}, {"type": "Feature", "properties": {"norad_id": 66514, "name": "SENTINEL-6B", "group": "resource", "lat": -65.23828029735134, "lon": 34.23491305771022, "alt_km": 1338.0369103366147, "timestamp": "2025-12-23T16:57:12.003113+00:00", "meta": {"OBJECT_NAME": "SENTINEL-6B", "OBJECT_ID": "2025-264A", "EPOCH": "2025-12-23T02:27:52.423776", "MEAN_MOTION": 12.8092954, "ECCENTRICITY": 0.00078893, "INCLINATION": 66.0396, "RA_OF_ASC_NODE": 140.9099, "ARG_OF_PERICENTER": 269.9741, "MEAN_ANOMALY": 90.037, "EPHEMERIS_TYPE": 0, "CLASSIFICATION_TYPE": "U", "NORAD_CAT_ID": 66514, "ELEMENT_SET_NO": 999, "REV_AT_EPOCH": 461, "BSTAR": -1.0381303e-05, "MEAN_MOTION_DOT": -6.3e-07, "MEAN_MOTION_DDOT": 0}, "tle": {"line1": "1 66514U 25264A   25357.10269009 -.00000063  00000+0 -10381-4 0  9997", "line2": "2 66514  66.0396 140.9099 0007889 269.9741  90.0370 12.80929540  4616"}}, "geometry": {"type": "Point", "coordinates": [34.23491305771022, -65.23828029735134]}}]}